ONEWEB-0685             
1 54679U 22166AP  24251.88824525  .00000732  00000+0  17402-2 0  9991
2 54679  87.9352  12.8629 0001489  96.2796 263.8508 13.21822140 85904
ONEWEB-0712             
1 54680U 22166AQ  24251.80165622  .00000041  00000+0  72684-4 0  9999
2 54680  87.9172 357.6897 0001831 115.4931 244.6390 13.17111901 86873
ONEWEB-0714             
1 54681U 22166AR  24251.89455927  .00000101  00000+0  21275-3 0  9995
2 54681  87.9354  12.8491 0001536  95.9460 264.1849 13.21825254 86028
ONEWEB-0532             
1 55140U 23004A   24251.75308082  .00000154  00000+0  36240-3 0  9998
2 55140  87.9154 134.8201 0002235  69.4286 290.7085 13.17649934 82320
ONEWEB-0533             
1 55141U 23004B   24251.67021600 -.00000485  00000+0 -13848-2 0  9995
2 55141  87.8901 119.6114 0001639  75.4733 284.6578 13.12441784 83121
ONEWEB-0541             
1 55142U 23004C   24251.80420618  .00000310  00000+0  83849-3 0  9997
2 55142  87.8983 149.9748 0001817  72.7916 287.3410 13.11415607 81095
ONEWEB-0543             
1 55143U 23004D   24251.63420116  .00000089  00000+0  19409-3 0  9996
2 55143  87.9069 104.4505 0001410  88.5963 271.5331 13.18686205 84355
ONEWEB-0544             
1 55144U 23004E   24251.85549625  .00000154  00000+0  35896-3 0  9999
2 55144  87.9072 104.3927 0001716  88.7778 271.3551 13.18687014 84386
